IRIDIUM 155             
1 43573U 18061E   23359.28317557  .00000436  00000+0  14845-3 0  9995
2 43573  86.3964  74.8768 0002375  93.9694 266.1773 14.34217292283658
IRIDIUM 154             
1 43574U 18061F   23359.61298341  .00000485  00000+0  16615-3 0  9993
2 43574  86.3966  74.8282 0002041 102.9919 257.1505 14.34224735283757
IRIDIUM 163             
1 43575U 18061G   23359.59396242  .00000141  00000+0  43120-4 0  9991
2 43575  86.3963  74.7794 0002115  98.9832 261.1604 14.34217018283720
IRIDIUM 156             
1 43576U 18061H   23359.28951598  .00000521  00000+0  17903-3 0  9990
2 43576  86.3965  74.9131 0002081  88.4532 271.6902 14.34220187283675
IRIDIUM 164             
1 43577U 18061J   23359.27048817  .00000450  00000+0  15371-3 0  9999
2 43577  86.3965  74.9474 0001913  93.2134 266.9281 14.34219432283714
IRIDIUM 159             
1 43578U 18061K   23359.58760306  .00000516  00000+0  17702-3 0  9991
2 43578  86.3964  74.7707 0002061  98.9475 261.1954 14.34225014283724
IRIDIUM 180             
1 43922U 19002A   23359.58711174  .00000485  00000+0  16601-3 0  9991
2 43922  86.3968  11.6443 0002068  95.5799 264.5633 14.34219991259335
IRIDIUM 176             
1 43923U 19002B   23359.57671987  .00001714  00000+0  26771-3 0  9993
2 43923  86.6097  11.6795 0002452  91.7785 268.3713 14.72278426266151
IRIDIUM 168             
1 43924U 19002C   23359.58076569  .00000508  00000+0  17434-3 0  9996
2 43924  86.3970  11.6988 0002110  92.8854 267.2583 14.34219542259318
IRIDIUM 173             
1 43925U 19002D   23359.56808617  .00000519  00000+0  17818-3 0  9990
2 43925  86.3967  11.6301 0002263  94.6097 265.5358 14.34218996259292
IRIDIUM 169             
1 43926U 19002E   23359.60993408  .00000558  00000+0  17598-3 0  9997
2 43926  86.4222  43.2194 0004971  88.2953 271.8815 14.38609133260175
IRIDIUM 172             
1 43927U 19002F   23359.56174170  .00000488  00000+0  16714-3 0  9991
2 43927  86.3967  11.6378 0002102  93.5128 266.6309 14.34221509259307
IRIDIUM 175             
1 43928U 19002G   23359.50282908  .00001886  00000+0  29491-3 0  9994
2 43928  86.1508 354.7340 0002474  89.4400 270.7100 14.72271971266130
IRIDIUM 171             
1 43929U 19002H   23358.56595621 -.00000009  00000+0 -10263-4 0  9995
2 43929  86.3974  12.2602 0001993  91.3409 268.8015 14.34218006259158
IRIDIUM 170             
1 43930U 19002J   23359.58297064  .00001698  00000+0  26522-3 0  9997
2 43930  86.6097  11.6817 0002526  88.0661 272.0845 14.72276955266162
IRIDIUM 167             
1 43931U 19002K   23359.53637007  .00000495  00000+0  16978-3 0  9996
2 43931  86.3968  11.6627 0002080  89.8863 270.2571 14.34221115259292
IRIDIUM 181             
1 56726U 23068S   23359.56797221  .00000621  00000+0  17755-3 0  9992
2 56726  86.8626  56.9033 0002054  70.3574 289.7849 14.43587000 31943
IRIDIUM 177             
1 56727U 23068T   23359.61013326  .00002291  00000+0  29788-3 0  9990
2 56727  86.1975  38.2342 0002384  98.0047 262.1445 14.80248973 32557
IRIDIUM 174             
1 56728U 23068U   23359.60472287  .00002289  00000+0  29751-3 0  9992
2 56728  86.1981  38.3263 0002256  97.3191 262.8286 14.80258702 32559
IRIDIUM 178             
1 56729U 23068V   23359.59930856  .00002232  00000+0  29010-3 0  9998
2 56729  86.5781  47.5164 0002466  97.4215 262.7287 14.80267826 32552
IRIDIUM 179             
1 56730U 23068W   23359.59389025  .00002239  00000+0  29098-3 0  9999
2 56730  86.6790  49.4534 0002468  99.5665 260.5836 14.80265133 32556
